API VERSION: 1.2
API SOURCE: NASA/JPL Horizons API



*******************************************************************************
Ephemeris / API_USER Mon Jul 20 21:41:45 2026 Pasadena, USA      / Horizons
*******************************************************************************
Target body name: Moon (301)                      {source: DE441}
Center body name: Earth (399)                     {source: DE441}
Center-site name: BODY CENTER
*******************************************************************************
Start time      : A.D. 2026-Apr-02 02:00:00.0000 TDB
Stop  time      : A.D. 2026-Apr-10 23:50:00.0000 TDB
Step-size       : 20 minutes
*******************************************************************************
Center geodetic : 0.0, 0.0, 0.0                   {E-lon(deg),Lat(deg),Alt(km)}
Center cylindric: 0.0, 0.0, 0.0                   {E-lon(deg),Dxy(km),Dz(km)}
Center radii    : 6378.137, 6378.137, 6356.752 km {Equator_a, b, pole_c}
Output units    : KM-S
Calendar mode   : Mixed Julian/Gregorian
Output type     : GEOMETRIC cartesian states
Output format   : 2 (position and velocity)
EOP file        : eop.260720.p261016
EOP coverage    : DATA-BASED 1962-JAN-20 TO 2026-JUL-20. PREDICTS-> 2026-OCT-15
Reference frame : ICRF
*******************************************************************************
            JDTDB,            Calendar Date (TDB),                      X,                      Y,                      Z,                     VX,                     VY,                     VZ,
**************************************************************************************************************************************************************************************************
$$SOE
2461139.000000000, A.D. 2026-Apr-08 12:00:00.0000, -2.907914343640014E+03, -3.561072698142827E+05, -1.911940450268330E+05,  9.669755819939665E-01, -7.789351453745584E-03,  3.325928516598000E-02,
2461139.013888889, A.D. 2026-Apr-08 12:20:00.0000, -1.747542940574943E+03, -3.561150433533597E+05, -1.911532887114302E+05,  9.669753525273448E-01, -5.166469421543396E-03,  3.466789291067993E-02,
2461139.027777778, A.D. 2026-Apr-08 12:40:00.0000, -5.871768674363797E+02, -3.561196691583736E+05, -1.911108421200753E+05,  9.669666984066666E-01, -2.543131087797011E-03,  3.607641008526117E-02,
2461139.041666667, A.D. 2026-Apr-08 13:00:00.0000,  5.731737648410852E+02, -3.561211466928259E+05, -1.910667053674563E+05,  9.669496173870010E-01,  8.064510696919683E-05,  3.748482668275594E-02,
2461139.055555556, A.D. 2026-Apr-08 13:20:00.0000,  1.733498842645630E+03, -3.561194754423524E+05, -1.910208785802718E+05,  9.669241072512694E-01,  2.704840712609226E-03,  3.889313269225085E-02,
2461139.069444444, A.D. 2026-Apr-08 13:40:00.0000,  2.893788249721648E+03, -3.561146549147351E+05, -1.909733618972361E+05,  9.668901658102537E-01,  5.329437269237155E-03,  4.030131809882408E-02,
2461139.083333333, A.D. 2026-Apr-08 14:00:00.0000,  4.054031867203215E+03, -3.561066846399136E+05, -1.909241554690834E+05,  9.668477909026026E-01,  7.954416307108723E-03,  4.170937288348253E-02,
2461139.097222222, A.D. 2026-Apr-08 14:20:00.0000,  5.214219573647481E+03, -3.560955641699973E+05, -1.908732594585737E+05,  9.667969803948429E-01,  1.057975934650246E-02,  4.311728702309860E-02,
2461139.111111111, A.D. 2026-Apr-08 14:40:00.0000,  6.374341245068191E+03, -3.560812930792772E+05, -1.908206740404969E+05,  9.667377321813920E-01,  1.320544789760039E-02,  4.452505049034707E-02,
2461139.125000000, A.D. 2026-Apr-08 15:00:00.0000,  7.534386754969102E+03, -3.560638709642382E+05, -1.907663994016784E+05,  9.666700441845695E-01,  1.583146346036839E-02,  4.593265325364163E-02,
2461139.138888889, A.D. 2026-Apr-08 15:20:00.0000,  8.694345974377527E+03, -3.560432974435716E+05, -1.907104357409840E+05,  9.665939143546129E-01,  1.845778752443632E-02,  4.734008527707149E-02,
2461139.152777778, A.D. 2026-Apr-08 15:40:00.0000,  9.854208771877817E+03, -3.560195721581873E+05, -1.906527832693254E+05,  9.665093406696946E-01,  2.108440156897762E-02,  4.874733652033774E-02,
2461139.166666667, A.D. 2026-Apr-08 16:00:00.0000,  1.101396501364489E+04, -3.559926947712263E+05, -1.905934422096651E+05,  9.664163211359390E-01,  2.371128706258852E-02,  5.015439693868953E-02,
2461139.180555556, A.D. 2026-Apr-08 16:20:00.0000,  1.217360456347780E+04, -3.559626649680741E+05, -1.905324127970221E+05,  9.663148537874431E-01,  2.633842546316728E-02,  5.156125648286034E-02,
2461139.194444444, A.D. 2026-Apr-08 16:40:00.0000,  1.333311728283331E+04, -3.559294824563729E+05, -1.904696952784774E+05,  9.662049366862971E-01,  2.896579821779264E-02,  5.296790509900386E-02,
2461139.208333333, A.D. 2026-Apr-08 17:00:00.0000,  1.449249303085953E+04, -3.558931469660352E+05, -1.904052899131791E+05,  9.660865679226085E-01,  3.159338676260234E-02,  5.437433272863006E-02,
2461139.222222222, A.D. 2026-Apr-08 17:20:00.0000,  1.565172166442944E+04, -3.558536582492564E+05, -1.903391969723485E+05,  9.659597456145249E-01,  3.422117252267101E-02,  5.578052930854096E-02,
2461139.236111111, A.D. 2026-Apr-08 17:40:00.0000,  1.681079303817474E+04, -3.558110160805290E+05, -1.902714167392856E+05,  9.658244679082627E-01,  3.684913691188808E-02,  5.718648477076634E-02,
2461139.250000000, A.D. 2026-Apr-08 18:00:00.0000,  1.796969700451935E+04, -3.557652202566551E+05, -1.902019495093748E+05,  9.656807329781322E-01,  3.947726133283498E-02,  5.859218904249941E-02,
2461139.263888889, A.D. 2026-Apr-08 18:20:00.0000,  1.912842341371330E+04, -3.557162705967609E+05, -1.901307955900908E+05,  9.655285390265707E-01,  4.210552717666266E-02,  5.999763204603231E-02,
2461139.277777778, A.D. 2026-Apr-08 18:40:00.0000,  2.028696211386642E+04, -3.556641669423099E+05, -1.900579553010046E+05,  9.653678842841702E-01,  4.473391582296816E-02,  6.140280369869165E-02,
2461139.291666667, A.D. 2026-Apr-08 19:00:00.0000,  2.144530295098211E+04, -3.556089091571174E+05, -1.899834289737893E+05,  9.651987670097122E-01,  4.736240863967145E-02,  6.280769391277385E-02,
2461139.305555556, A.D. 2026-Apr-08 19:20:00.0000,  2.260343576899133E+04, -3.555504971273640E+05, -1.899072169522264E+05,  9.650211854902028E-01,  4.999098698289163E-02,  6.421229259548042E-02,
2461139.319444444, A.D. 2026-Apr-08 19:40:00.0000,  2.376135040978631E+04, -3.554889307616100E+05, -1.898293195922118E+05,  9.648351380409070E-01,  5.261963219682324E-02,  6.561658964885332E-02,
2461139.333333333, A.D. 2026-Apr-08 20:00:00.0000,  2.491903671325463E+04, -3.554242099908103E+05, -1.897497372617621E+05,  9.646406230053891E-01,  5.524832561361201E-02,  6.702057496970999E-02,
2461139.347222222, A.D. 2026-Apr-08 20:20:00.0000,  2.607648451731313E+04, -3.553563347683281E+05, -1.896684703410208E+05,  9.644376387555492E-01,  5.787704855323053E-02,  6.842423844957866E-02,
2461139.361111111, A.D. 2026-Apr-08 20:40:00.0000,  2.723368365794196E+04, -3.552853050699502E+05, -1.895855192222650E+05,  9.642261836916679E-01,  6.050578232335375E-02,  6.982756997463326E-02,
2461139.375000000, A.D. 2026-Apr-08 21:00:00.0000,  2.839062396921863E+04, -3.552111208939016E+05, -1.895008843099113E+05,  9.640062562424476E-01,  6.313450821923405E-02,  7.123055942562848E-02,
2461139.388888889, A.D. 2026-Apr-08 21:20:00.0000,  2.954729528335219E+04, -3.551337822608604E+05, -1.894145660205229E+05,  9.637778548650562E-01,  6.576320752357652E-02,  7.263319667783487E-02,
2461139.402777778, A.D. 2026-Apr-08 21:40:00.0000,  3.070368743071739E+04, -3.550532892139734E+05, -1.893265647828160E+05,  9.635409780451758E-01,  6.839186150641346E-02,  7.403547160097360E-02,
2461139.416666667, A.D. 2026-Apr-08 22:00:00.0000,  3.185979023988892E+04, -3.549696418188706E+05, -1.892368810376665E+05,  9.632956242970487E-01,  7.102045142497923E-02,  7.543737405915146E-02,
2461139.430555556, A.D. 2026-Apr-08 22:20:00.0000,  3.301559353767576E+04, -3.548828401636812E+05, -1.891455152381166E+05,  9.630417921635294E-01,  7.364895852358465E-02,  7.683889391079586E-02,
2461139.444444444, A.D. 2026-Apr-08 22:40:00.0000,  3.417108714915547E+04, -3.547928843590493E+05, -1.890524678493821E+05,  9.627794802161336E-01,  7.627736403349113E-02,  7.824002100858947E-02,
2461139.458333333, A.D. 2026-Apr-08 23:00:00.0000,  3.532626089770865E+04, -3.546997745381490E+05, -1.889577393488587E+05,  9.625086870550943E-01,  7.890564917278511E-02,  7.964074519940514E-02,
2461139.472222222, A.D. 2026-Apr-08 23:20:00.0000,  3.648110460505346E+04, -3.546035108567008E+05, -1.888613302261298E+05,  9.622294113094140E-01,  8.153379514625181E-02,  8.104105632424081E-02,
2461139.486111111, A.D. 2026-Apr-08 23:40:00.0000,  3.763560809128012E+04, -3.545040934929876E+05, -1.887632409829728E+05,  9.619416516369239E-01,  8.416178314524905E-02,  8.244094421815421E-02,
2461139.500000000, A.D. 2026-Apr-09 00:00:00.0000,  3.878976117488563E+04, -3.544015226478706E+05, -1.886634721333669E+05,  9.616454067243407E-01,  8.678959434758110E-02,  8.384039871019773E-02,
2461139.513888889, A.D. 2026-Apr-09 00:20:00.0000,  3.994355367280837E+04, -3.542957985448062E+05, -1.885620242034998E+05,  9.613406752873277E-01,  8.941720991737213E-02,  8.523940962335326E-02,
2461139.527777778, A.D. 2026-Apr-09 00:40:00.0000,  4.109697540046292E+04, -3.541869214298616E+05, -1.884588977317756E+05,  9.610274560705563E-01,  9.204461100493980E-02,  8.663796677446700E-02,
2461139.541666667, A.D. 2026-Apr-09 01:00:00.0000,  4.225001617177494E+04, -3.540748915717325E+05, -1.883540932688215E+05,  9.607057478477702E-01,  9.467177874666846E-02,  8.803605997418429E-02,
2461139.555555556, A.D. 2026-Apr-09 01:20:00.0000,  4.340266579921594E+04, -3.539597092617589E+05, -1.882476113774962E+05,  9.603755494218503E-01,  9.729869426488257E-02,  8.943367902688441E-02,
2461139.569444444, A.D. 2026-Apr-09 01:40:00.0000,  4.455491409383854E+04, -3.538413748139427E+05, -1.881394526328965E+05,  9.600368596248828E-01,  9.992533866771991E-02,  9.083081373061556E-02,
